ONEWEB-0159             
1 48062U 21025W   24214.73399911  .00000323  00000+0  85057-3 0  9990
2 48062  87.8899  96.4391 0001920  85.5069 274.6280 13.13469095163750
ONEWEB-0164             
1 48063U 21025X   24214.94506672 -.00000110  00000+0 -33497-3 0  9995
2 48063  87.8899  96.4073 0001763  75.1844 284.9480 13.13470374163768
ONEWEB-0167             
1 48064U 21025Y   24214.97442007  .00000351  00000+0  92656-3 0  9997
2 48064  87.8901  96.4139 0001803  84.9367 275.1968 13.13471613163758
ONEWEB-0166             
1 48065U 21025Z   24214.91967363 -.00000100  00000+0 -30950-3 0  9992
2 48065  87.8899  96.4064 0002043  82.4003 277.7358 13.13468439163820
ONEWEB-0151             
1 48066U 21025AA  24215.22597298 -.00000100  00000+0 -30783-3 0  9998
2 48066  87.8900  96.3598 0001716  75.7755 284.3565 13.13469923163812
ONEWEB-0170             
1 48067U 21025AB  24215.08154423 -.00000217  00000+0 -62910-3 0  9998
2 48067  87.8900  96.3914 0001633  59.2793 300.8496 13.13467919163744
ONEWEB-0168             
1 48068U 21025AC  24215.21962482  .00000085  00000+0  19708-3 0  9994
2 48068  87.8903  96.3347 0001840  80.8351 279.2987 13.13468498163778
ONEWEB-0173             
1 48069U 21025AD  24214.90697744  .00000231  00000+0  59853-3 0  9994
2 48069  87.8904  96.4070 0001469  89.0013 271.1284 13.13468697163971
